[{"OBJECT_NAME":"W-SERIES 4","OBJECT_ID":"2025-135R","EPOCH":"2026-03-09T19:54:39.716640","MEAN_MOTION":15.01503849,"ECCENTRICITY":0.04025811,"INCLINATION":97.4458,"RA_OF_ASC_NODE":182.1022,"ARG_OF_PERICENTER":65.9998,"MEAN_ANOMALY":298.2822,"EPHEMERIS_TYPE":0,"CLASSIFICATION_TYPE":"U","NORAD_CAT_ID":64543,"ELEMENT_SET_NO":999,"REV_AT_EPOCH":3954,"BSTAR":0.00063083397,"MEAN_MOTION_DOT":0.00052628,"MEAN_MOTION_DDOT":2.148409e-6},{"OBJECT_NAME":"SL-8 DEB","OBJECT_ID":"1978-034C","EPOCH":"2026-03-09T20:09:45.988704","MEAN_MOTION":14.52918604,"ECCENTRICITY":0.00129121,"INCLINATION":82.9212,"RA_OF_ASC_NODE":7.2529,"ARG_OF_PERICENTER":98.2042,"MEAN_ANOMALY":321.7759,"EPHEMERIS_TYPE":0,"CLASSIFICATION_TYPE":"U","NORAD_CAT_ID":13474,"ELEMENT_SET_NO":999,"REV_AT_EPOCH":44818,"BSTAR":0.0020706647,"MEAN_MOTION_DOT":8.559e-5,"MEAN_MOTION_DDOT":0}]
